OBJECT_NAME,OBJECT_ID,EPOCH,MEAN_MOTION,ECCENTRICITY,INCLINATION,RA_OF_ASC_NODE,ARG_OF_PERICENTER,MEAN_ANOMALY,EPHEMERIS_TYPE,CLASSIFICATION_TYPE,NORAD_CAT_ID,ELEMENT_SET_NO,REV_AT_EPOCH,BSTAR,MEAN_MOTION_DOT,MEAN_MOTION_DDOT
ORBCOMM FM06,1997-084G,2026-07-19T10:20:50.593632,14.47631753,.00017792,45.0131,257.4809,245.9024,128.2802,0,U,25118,999,49906,.14090096E-3,.378E-5,0
ORBCOMM FM04,1998-007C,2026-07-19T08:58:53.800320,14.35788592,.00419977,107.9632,235.6679,269.8434,89.7893,0,U,25159,999,48121,.15741801E-3,.327E-5,0
ORBCOMM FM19,1998-046C,2026-07-19T03:55:36.501024,14.39545598,.00032444,44.9937,91.5581,88.9175,72.0495,0,U,25415,999,46138,.17103471E-3,.396E-5,0
ORBCOMM FM20,1998-046D,2026-07-18T03:14:48.784704,14.38102815,.0001161,44.9939,104.7114,17.6041,342.4847,0,U,25416,999,46124,.1387142E-3,.282E-5,0
ORBCOMM FM27,1998-053G,2026-07-19T06:11:53.159424,14.39188925,.00022459,45.0035,183.0191,305.7723,54.2917,0,U,25481,999,45485,.14911908E-3,.323E-5,0
ORBCOMM FM32,1999-065C,2026-07-19T11:25:02.161344,14.37171375,.00060849,45.0160,20.3999,212.2873,147.7603,0,U,25982,999,39173,.12421316E-3,.231E-5,0
ORBCOMM FM109,2014-040A,2026-07-19T13:27:53.627040,14.58873556,.0001327,47.0031,298.4229,336.7063,23.3763,0,U,40086,999,63907,.42145814E-4,.28E-6,0
ORBCOMM FM110,2015-081D,2026-07-19T10:17:22.106976,14.58921441,.00037285,47.0002,208.9906,239.4274,120.6244,0,U,41182,999,56233,.76435197E-4,.19E-5,0
ORBCOMM FM118,2015-081E,2026-07-19T09:28:23.399328,14.58905829,.00031213,47.0023,209.4909,204.5784,155.4953,0,U,41183,999,56243,.45596435E-4,.44E-6,0
ORBCOMM FM112,2015-081F,2026-07-19T04:38:09.996864,14.58941666,.00034577,46.9986,118.8931,345.9313,14.1476,0,U,41184,999,56362,.87812404E-4,.244E-5,0
ORBCOMM FM113,2015-081G,2026-07-19T04:06:07.929504,14.58884305,.00020007,47.0004,119.3917,337.1386,22.9410,0,U,41185,999,56360,.61158685E-4,.118E-5,0
ORBCOMM FM108,2015-081J,2026-07-19T13:03:00.049248,14.58913726,.00023821,47.0057,29.2105,339.0565,21.0223,0,U,41187,999,56480,.76867783E-4,.192E-5,0
ORBCOMM FM117,2015-081K,2026-07-19T13:52:19.874784,14.58900794,.00027531,47.0020,27.6744,347.0731,13.0084,0,U,41188,999,56485,.75187526E-4,.184E-5,0
ORBCOMM FM116,2015-081L,2026-07-19T05:10:36.129216,14.58909207,.00016885,47.0017,119.1769,240.8067,119.2650,0,U,41189,999,56361,.73260067E-4,.175E-5,0
