ORBCOMM FM06            
1 25118U 97084G   26200.43114113  .00000378  00000+0  14090-3 0  9997
2 25118  45.0131 257.4809 0001779 245.9024 128.2802 14.47631753499060
ORBCOMM FM04            
1 25159U 98007C   26200.37423380  .00000327  00000+0  15742-3 0  9999
2 25159 107.9632 235.6679 0041997 269.8434  89.7893 14.35788592481218
ORBCOMM FM19            
1 25415U 98046C   26200.16361691  .00000396  00000+0  17103-3 0  9999
2 25415  44.9937  91.5581 0003244  88.9175  72.0495 14.39545598461387
ORBCOMM FM20            
1 25416U 98046D   26199.13528686  .00000282  00000+0  13871-3 0  9995
2 25416  44.9939 104.7114 0001161  17.6041 342.4847 14.38102815461246
ORBCOMM FM27            
1 25481U 98053G   26200.25825416  .00000323  00000+0  14912-3 0  9995
2 25481  45.0035 183.0191 0002245 305.7723  54.2917 14.39188925454856
ORBCOMM FM32            
1 25982U 99065C   26200.47571946  .00000231  00000+0  12421-3 0  9996
2 25982  45.0160  20.3999 0006084 212.2873 147.7603 14.37171375391739
ORBCOMM FM109           
1 40086U 14040A   26200.56103735  .00000028  00000+0  42146-4 0  9997
2 40086  47.0031 298.4229 0001327 336.7063  23.3763 14.58873556639073
ORBCOMM FM110           
1 41182U 15081D   26200.42872809  .00000190  00000+0  76435-4 0  9999
2 41182  47.0002 208.9906 0003728 239.4274 120.6244 14.58921441562333
ORBCOMM FM118           
1 41183U 15081E   26200.39471527  .00000044  00000+0  45596-4 0  9990
2 41183  47.0023 209.4909 0003121 204.5784 155.4953 14.58905829562438
ORBCOMM FM112           
1 41184U 15081F   26200.19317126  .00000244  00000+0  87812-4 0  9992
2 41184  46.9986 118.8931 0003457 345.9313  14.1476 14.58941666563625
ORBCOMM FM113           
1 41185U 15081G   26200.17092511  .00000118  00000+0  61159-4 0  9995
2 41185  47.0004 119.3917 0002000 337.1386  22.9410 14.58884305563604
ORBCOMM FM108           
1 41187U 15081J   26200.54375057  .00000192  00000+0  76868-4 0  9992
2 41187  47.0057  29.2105 0002382 339.0565  21.0223 14.58913726564800
ORBCOMM FM117           
1 41188U 15081K   26200.57800781  .00000184  00000+0  75188-4 0  9998
2 41188  47.0020  27.6744 0002753 347.0731  13.0084 14.58900794564850
ORBCOMM FM116           
1 41189U 15081L   26200.21569594  .00000175  00000+0  73260-4 0  9993
2 41189  47.0017 119.1769 0001688 240.8067 119.2650 14.58909207563618
